{
  "norad_id": 64524,
  "name": "KUIPER-00064",
  "history": [
    {
      "epoch": "2026-03-28T20:57:53.125920Z",
      "apogee_km": 629.7381130750991,
      "perigee_km": 629.1564835783383,
      "latitude_deg": -1.3330898307484213e-05,
      "longitude_deg": 9.935403704486408,
      "height_km": 630.0972140067856,
      "semi_major_axis_km": 7007.584298326718,
      "eccentricity": 4.15e-05,
      "inclination_deg": 51.9017,
      "raan_deg": 150.6945,
      "arg_perigee_deg": 70.6143,
      "mean_anomaly_deg": 289.4864,
      "mean_motion_rev_day": 14.79960982
    },
    {
      "epoch": "2026-03-28T20:57:53.126784Z",
      "apogee_km": 629.7384634543141,
      "perigee_km": 629.1561331991234,
      "latitude_deg": -1.760764425444403e-05,
      "longitude_deg": 9.93539675962389,
      "height_km": 630.0970977104985,
      "semi_major_axis_km": 7007.584298326718,
      "eccentricity": 4.155e-05,
      "inclination_deg": 51.9017,
      "raan_deg": 150.6945,
      "arg_perigee_deg": 70.6143,
      "mean_anomaly_deg": 289.4864,
      "mean_motion_rev_day": 14.79960982
    },
    {
      "epoch": "2026-03-29T21:16:29.551296Z",
      "apogee_km": 629.7090607863929,
      "perigee_km": 629.1092148369971,
      "latitude_deg": -6.129972532525268e-06,
      "longitude_deg": -0.19364375587519733,
      "height_km": 630.0330550899102,
      "semi_major_axis_km": 7007.546137811695,
      "eccentricity": 4.28e-05,
      "inclination_deg": 51.9024,
      "raan_deg": 146.2156,
      "arg_perigee_deg": 65.8709,
      "mean_anomaly_deg": 294.2298,
      "mean_motion_rev_day": 14.79973071
    },
    {
      "epoch": "2026-03-29T21:16:29.552160Z",
      "apogee_km": 629.7093410882399,
      "perigee_km": 629.108934535152,
      "latitude_deg": -9.41236451945487e-06,
      "longitude_deg": -0.19364992530487016,
      "height_km": 630.0329405039361,
      "semi_major_axis_km": 7007.546137811695,
      "eccentricity": 4.284e-05,
      "inclination_deg": 51.9024,
      "raan_deg": 146.2156,
      "arg_perigee_deg": 65.8709,
      "mean_anomaly_deg": 294.2298,
      "mean_motion_rev_day": 14.79973071
    }
  ]
}